{"type": "FeatureCollection", "features": [ {"type": "Feature", "properties": {"norad_id": 66052, "name": "HRC MONOBLOCK CAMERA", "group": "stations", "lat": -36.942427566461014, "lon": 95.15997769643575, "alt_km": 409.2068856367805, "timestamp": "2025-12-14T16:47:39.460350+00:00", "meta": {"OBJECT_NAME": "HRC MONOBLOCK CAMERA", "OBJECT_ID": "1998-067XR", "EPOCH": "2025-12-13T22:29:30.916896", "MEAN_MOTION": 15.54245185, "ECCENTRICITY": 0.00031513, "INCLINATION": 51.6291, "RA_OF_ASC_NODE": 135.5359, "ARG_OF_PERICENTER": 189.7687, "MEAN_ANOMALY": 170.3243, "EPHEMERIS_TYPE": 0, "CLASSIFICATION_TYPE": "U", "NORAD_CAT_ID": 66052, "ELEMENT_SET_NO": 999, "REV_AT_EPOCH": 902, "BSTAR": 0.00061222151, "MEAN_MOTION_DOT": 0.00040432, "MEAN_MOTION_DDOT": 0}, "tle": {"line1": "1 66052U 98067XR  25347.93716339  .00040432  00000+0  61222-3 0  9999", "line2": "2 66052  51.6291 135.5359 0003151 189.7687 170.3243 15.54245185  9023"}}, "geometry": {"type": "Point", "coordinates": [95.15997769643575, -36.942427566461014]}}, {"type": "Feature", "properties": {"norad_id": 66174, "name": "HTV-X1", "group": "stations", "lat": 7.714854877908026, "lon": -53.39004981091637, "alt_km": 417.1620819978125, "timestamp": "2025-12-14T16:47:39.460360+00:00", "meta": {"OBJECT_NAME": "HTV-X1", "OBJECT_ID": "2025-241A", "EPOCH": "2025-12-13T21:29:24.134208", "MEAN_MOTION": 15.49578, "ECCENTRICITY": 0.00032568, "INCLINATION": 51.6304, "RA_OF_ASC_NODE": 136.7564, "ARG_OF_PERICENTER": 246.2023, "MEAN_ANOMALY": 113.8624, "EPHEMERIS_TYPE": 0, "CLASSIFICATION_TYPE": "U", "NORAD_CAT_ID": 66174, "ELEMENT_SET_NO": 999, "REV_AT_EPOCH": 51, "BSTAR": 0.00022109287, "MEAN_MOTION_DOT": 0.00011998, "MEAN_MOTION_DDOT": 0}, "tle": {"line1": "1 66174U 25241A   25347.89541822  .00011998  00000+0  22109-3 0  9992", "line2": "2 66174  51.6304 136.7564 0003256 246.2023 113.8624 15.49578000   512"}}, "geometry": {"type": "Point", "coordinates": [-53.39004981091637, 7.714854877908026]}}, {"type": "Feature", "properties": {"norad_id": 66515, "name": "SZ-21 MODULE", "group": "stations", "lat": -38.682535342315354, "lon": -60.91964072303102, "alt_km": 378.97122022486474, "timestamp": "2025-12-14T16:47:39.460371+00:00", "meta": {"OBJECT_NAME": "SZ-21 MODULE", "OBJECT_ID": "2025-246C", "EPOCH": "2025-12-13T05:48:56.217312", "MEAN_MOTION": 15.62521016, "ECCENTRICITY": 0.00062862, "INCLINATION": 41.4775, "RA_OF_ASC_NODE": 12.9802, "ARG_OF_PERICENTER": 263.0797, "MEAN_ANOMALY": 96.9328, "EPHEMERIS_TYPE": 0, "CLASSIFICATION_TYPE": "U", "NORAD_CAT_ID": 66515, "ELEMENT_SET_NO": 999, "REV_AT_EPOCH": 452, "BSTAR": 0.00043386364, "MEAN_MOTION_DOT": 0.00039667, "MEAN_MOTION_DDOT": 0}, "tle": {"line1": "1 66515U 25246C   25347.24231733  .00039667  00000+0  43386-3 0  9995", "line2": "2 66515  41.4775  12.9802 0006286 263.0797  96.9328 15.62521016  4528"}}, "geometry": {"type": "Point", "coordinates": [-60.91964072303102, -38.682535342315354]}}, {"type": "Feature", "properties": {"norad_id": 66645, "name": "SHENZHOU-22", "group": "stations", "lat": -1.8391908826923036, "lon": 2.722207866861722, "alt_km": 385.996996129752, "timestamp": "2025-12-14T16:47:39.460381+00:00", "meta": {"OBJECT_NAME": "SHENZHOU-22", "OBJECT_ID": "2025-272A", "EPOCH": "2025-12-13T19:17:07.421568", "MEAN_MOTION": 15.59230309, "ECCENTRICITY": 0.00080892, "INCLINATION": 41.4685, "RA_OF_ASC_NODE": 10.2494, "ARG_OF_PERICENTER": 39.7422, "MEAN_ANOMALY": 320.4007, "EPHEMERIS_TYPE": 0, "CLASSIFICATION_TYPE": "U", "NORAD_CAT_ID": 66645, "ELEMENT_SET_NO": 999, "REV_AT_EPOCH": 26357, "BSTAR": 0.00031564739, "MEAN_MOTION_DOT": 0.00025274, "MEAN_MOTION_DDOT": 0}, "tle": {"line1": "1 66645U 25272A   25347.80355812  .00025274  00000+0  31565-3 0  9990", "line2": "2 66645  41.4685  10.2494 0008089  39.7422 320.4007 15.59230309263575"}}, "geometry": {"type": "Point", "coordinates": [2.722207866861722, -1.8391908826923036]}}, {"type": "Feature", "properties": {"norad_id": 66664, "name": "SOYUZ-MS 28", "group": "stations", "lat": 7.714853215476697, "lon": -53.390048463710535, "alt_km": 417.1620821569768, "timestamp": "2025-12-14T16:47:39.460393+00:00", "meta": {"OBJECT_NAME": "SOYUZ-MS 28", "OBJECT_ID": "2025-275A", "EPOCH": "2025-12-13T21:29:24.134208", "MEAN_MOTION": 15.49578, "ECCENTRICITY": 0.00032568, "INCLINATION": 51.6304, "RA_OF_ASC_NODE": 136.7564, "ARG_OF_PERICENTER": 246.2023, "MEAN_ANOMALY": 113.8624, "EPHEMERIS_TYPE": 0, "CLASSIFICATION_TYPE": "U", "NORAD_CAT_ID": 66664, "ELEMENT_SET_NO": 999, "REV_AT_EPOCH": 128, "BSTAR": 0.00022109287, "MEAN_MOTION_DOT": 0.00011998, "MEAN_MOTION_DDOT": 0}, "tle": {"line1": "1 66664U 25275A   25347.89541822  .00011998  00000+0  22109-3 0  9993", "line2": "2 66664  51.6304 136.7564 0003256 246.2023 113.8624 15.49578000  1281"}}, "geometry": {"type": "Point", "coordinates": [-53.390048463710535, 7.714853215476697]}}, {"type": "Feature", "properties": {"norad_id": 66906, "name": "1998-067XS", "group": "stations", "lat": -20.97978621631234, "lon": -29.61813986094213, "alt_km": 415.3162997655254, "timestamp": "2025-12-14T16:47:39.460403+00:00", "meta": {"OBJECT_NAME": "1998-067XS", "OBJECT_ID": "1998-067XS", "EPOCH": "2025-12-13T19:47:52.336320", "MEAN_MOTION": 15.50642629, "ECCENTRICITY": 0.00035104, "INCLINATION": 51.6303, "RA_OF_ASC_NODE": 137.0364, "ARG_OF_PERICENTER": 208.0686, "MEAN_ANOMALY": 152.0114, "EPHEMERIS_TYPE": 0, "CLASSIFICATION_TYPE": "U", "NORAD_CAT_ID": 66906, "ELEMENT_SET_NO": 999, "REV_AT_EPOCH": 178, "BSTAR": 0.00053972464, "MEAN_MOTION_DOT": 0.00031181, "MEAN_MOTION_DDOT": 0}, "tle": {"line1": "1 66906U 98067XS  25347.82491130  .00031181  00000+0  53972-3 0  9998", "line2": "2 66906  51.6303 137.0364 0003510 208.0686 152.0114 15.50642629  1780"}}, "geometry": {"type": "Point", "coordinates": [-29.61813986094213, -20.97978621631234]}}, {"type": "Feature", "properties": {"norad_id": 66907, "name": "1998-067XT", "group": "stations", "lat": -36.38948873326991, "lon": -11.624906769797342, "alt_km": 412.75010142500196, "timestamp": "2025-12-14T16:47:39.460414+00:00", "meta": {"OBJECT_NAME": "1998-067XT", "OBJECT_ID": "1998-067XT", "EPOCH": "2025-12-13T16:37:31.235232", "MEAN_MOTION": 15.51604707, "ECCENTRICITY": 0.00043667, "INCLINATION": 51.6303, "RA_OF_ASC_NODE": 137.6541, "ARG_OF_PERICENTER": 232.3065, "MEAN_ANOMALY": 127.7529, "EPHEMERIS_TYPE": 0, "CLASSIFICATION_TYPE": "U", "NORAD_CAT_ID": 66907, "ELEMENT_SET_NO": 999, "REV_AT_EPOCH": 176, "BSTAR": 0.0011074189, "MEAN_MOTION_DOT": 0.00067037, "MEAN_MOTION_DDOT": 0}, "tle": {"line1": "1 66907U 98067XT  25347.69272263  .00067037  00000+0  11074-2 0  9993", "line2": "2 66907  51.6303 137.6541 0004366 232.3065 127.7529 15.51604707  1768"}}, "geometry": {"type": "Point", "coordinates": [-11.624906769797342, -36.38948873326991]}}, {"type": "Feature", "properties": {"norad_id": 66908, "name": "1998-067XU", "group": "stations", "lat": -37.93063069632579, "lon": -9.224159375683104, "alt_km": 412.4626721749464, "timestamp": "2025-12-14T16:47:39.460424+00:00", "meta": {"OBJECT_NAME": "1998-067XU", "OBJECT_ID": "1998-067XU", "EPOCH": "2025-12-13T19:42:27.196704", "MEAN_MOTION": 15.51709735, "ECCENTRICITY": 0.00044517, "INCLINATION": 51.6297, "RA_OF_ASC_NODE": 137.0108, "ARG_OF_PERICENTER": 232.0279, "MEAN_ANOMALY": 128.0309, "EPHEMERIS_TYPE": 0, "CLASSIFICATION_TYPE": "U", "NORAD_CAT_ID": 66908, "ELEMENT_SET_NO": 999, "REV_AT_EPOCH": 178, "BSTAR": 0.0012120961, "MEAN_MOTION_DOT": 0.0007376, "MEAN_MOTION_DDOT": 0}, "tle": {"line1": "1 66908U 98067XU  25347.82114811  .00073760  00000+0  12121-2 0  9997", "line2": "2 66908  51.6297 137.0108 0004451 232.0279 128.0309 15.51709735  1782"}}, "geometry": {"type": "Point", "coordinates": [-9.224159375683104, -37.93063069632579]}}, {"type": "Feature", "properties": {"norad_id": 66909, "name": "SILVERSAT", "group": "stations", "lat": -39.645927577135524, "lon": -6.326972298814811, "alt_km": 412.28175409244614, "timestamp": "2025-12-14T16:47:39.460434+00:00", "meta": {"OBJECT_NAME": "SILVERSAT", "OBJECT_ID": "1998-067XV", "EPOCH": "2025-12-13T19:41:48.869664", "MEAN_MOTION": 15.51822369, "ECCENTRICITY": 0.00043322, "INCLINATION": 51.6299, "RA_OF_ASC_NODE": 137.0079, "ARG_OF_PERICENTER": 234.1355, "MEAN_ANOMALY": 125.9233, "EPHEMERIS_TYPE": 0, "CLASSIFICATION_TYPE": "U", "NORAD_CAT_ID": 66909, "ELEMENT_SET_NO": 999, "REV_AT_EPOCH": 178, "BSTAR": 0.0012407437, "MEAN_MOTION_DOT": 0.0007584, "MEAN_MOTION_DDOT": 0}, "tle": {"line1": "1 66909U 98067XV  25347.82070451  .00075840  00000+0  12407-2 0  9997", "line2": "2 66909  51.6299 137.0079 0004332 234.1355 125.9233 15.51822369  1789"}}, "geometry": {"type": "Point", "coordinates": [-6.326972298814811, -39.645927577135524]}}, {"type": "Feature", "properties": {"norad_id": 66910, "name": "1998-067XW", "group": "stations", "lat": -44.605712846077786, "lon": 4.0154058603110245, "alt_km": 412.03970085778656, "timestamp": "2025-12-14T16:47:39.460444+00:00", "meta": {"OBJECT_NAME": "1998-067XW", "OBJECT_ID": "1998-067XW", "EPOCH": "2025-12-13T19:39:33.068736", "MEAN_MOTION": 15.51931188, "ECCENTRICITY": 0.00050672, "INCLINATION": 51.6298, "RA_OF_ASC_NODE": 136.9978, "ARG_OF_PERICENTER": 214.3383, "MEAN_ANOMALY": 145.728, "EPHEMERIS_TYPE": 0, "CLASSIFICATION_TYPE": "U", "NORAD_CAT_ID": 66910, "ELEMENT_SET_NO": 999, "REV_AT_EPOCH": 178, "BSTAR": 0.0011247598, "MEAN_MOTION_DOT": 0.00068924, "MEAN_MOTION_DDOT": 0}, "tle": {"line1": "1 66910U 98067XW  25347.81913274  .00068924  00000+0  11248-2 0  9994", "line2": "2 66910  51.6298 136.9978 0005067 214.3383 145.7280 15.51931188  1785"}}, "geometry": {"type": "Point", "coordinates": [4.0154058603110245, -44.605712846077786]}}]}